[
{"key": 0, "title": "天気の子", "placename": "田端", "url": "https://legwork.g.hatena.ne.jp/keyword/天気の子", "lat": 35.7359733, "lng": 139.7562635},
{"key": 1, "title": "天気の子", "placename": "新宿", "url": "https://legwork.g.hatena.ne.jp/keyword/天気の子", "lat": 35.6938253, "lng": 139.7033559},
{"key": 2, "title": "天気の子", "placename": "代々木", "url": "https://legwork.g.hatena.ne.jp/keyword/天気の子", "lat": 35.6821697, "lng": 139.69369},
{"key": 3, "title": "アオナツライン", "placename": "鎌倉・藤沢・江ノ島", "url": "https://legwork.g.hatena.ne.jp/keyword/アオナツライン", "lat": 35.2990992, "lng": 139.4809269},
{"key": 4, "title": "天気の子", "placename": "御徒町", "url": "https://legwork.g.hatena.ne.jp/keyword/天気の子", "lat": 35.7075424, "lng": 139.7748604},
{"key": 5, "title": "銀色、遥か", "placename": "札幌", "url": "https://legwork.g.hatena.ne.jp/keyword/銀色、遥か", "lat": 43.0617713, "lng": 141.3544507},
{"key": 6, "title": "結城友奈は勇者である", "placename": "剣山", "url": "https://legwork.g.hatena.ne.jp/keyword/結城友奈は勇者である", "lat": 33.8535949, "lng": 134.0941633},
{"key": 7, "title": "タマユラミライ", "placename": "遠野", "url": "https://legwork.g.hatena.ne.jp/keyword/タマユラミライ", "lat": 39.3306618, "lng": 141.5314512},
{"key": 8, "title": "銀色、遥か", "placename": "ローマ", "url": "https://legwork.g.hatena.ne.jp/keyword/銀色、遥か", "lat": 41.9027835, "lng": 12.4963655},
{"key": 9, "title": "結城友奈は勇者である", "placename": "高松", "url": "https://legwork.g.hatena.ne.jp/keyword/結城友奈は勇者である", "lat": 34.342542, "lng": 134.0465405},
{"key": 10, "title": "中二病でも恋がしたい！", "placename": "原宿", "url": "https://legwork.g.hatena.ne.jp/keyword/中二病でも恋がしたい！", "lat": 35.6699682, "lng": 139.709008},
{"key": 11, "title": "銀色、遥か", "placename": "小樽", "url": "https://legwork.g.hatena.ne.jp/keyword/銀色、遥か", "lat": 43.1902372, "lng": 140.994172},
{"key": 12, "title": "結城友奈は勇者である", "placename": "坂出", "url": "https://legwork.g.hatena.ne.jp/keyword/結城友奈は勇者である", "lat": 34.316426, "lng": 133.8604948},
{"key": 13, "title": "中二病でも恋がしたい！", "placename": "京阪石山駅", "url": "https://legwork.g.hatena.ne.jp/keyword/中二病でも恋がしたい！", "lat": 34.97961, "lng": 135.9000271},
{"key": 14, "title": "四月は君の嘘", "placename": "埼玉県新座", "url": "https://legwork.g.hatena.ne.jp/keyword/四月は君の嘘", "lat": 35.7931531, "lng": 139.5657297},
{"key": 15, "title": "ラブライブ", "placename": "本郷三丁目", "url": "https://legwork.g.hatena.ne.jp/keyword/ラブライブ", "lat": 35.7074949, "lng": 139.7613184},
{"key": 16, "title": "アイドルマスターシンデレラガールズ", "placename": "ピサ", "url": "https://legwork.g.hatena.ne.jp/keyword/アイドルマスターシンデレラガールズ", "lat": 43.7228386, "lng": 10.4016888},
{"key": 17, "title": "色づく世界の明日から", "placename": "ノール・ハウス（イギリス）", "url": "https://legwork.g.hatena.ne.jp/keyword/色づく世界の明日から", "lat": 51.2662551, "lng": 0.20557},
{"key": 18, "title": "Fate/stay night", "placename": "梅屋敷", "url": "https://legwork.g.hatena.ne.jp/keyword/Fate/stay night", "lat": 35.566807, "lng": 139.728246},
{"key": 19, "title": "ゆるキャン△", "placename": "四尾連湖（市川三郷町）", "url": "https://legwork.g.hatena.ne.jp/keyword/ゆるキャン△", "lat": 35.5294622, "lng": 138.51716},
{"key": 20, "title": "月の彼方で逢いましょう", "placename": "芝浦ふ頭", "url": "https://legwork.g.hatena.ne.jp/keyword/月の彼方で逢いましょう", "lat": 35.6422435, "lng": 139.7578238},
{"key": 21, "title": "結城友奈は勇者である", "placename": "宇多津", "url": "https://legwork.g.hatena.ne.jp/keyword/結城友奈は勇者である", "lat": 34.3113524, "lng": 133.825692},
{"key": 22, "title": "中二病でも恋がしたい！", "placename": "六本木ヒルズ", "url": "https://legwork.g.hatena.ne.jp/keyword/中二病でも恋がしたい！", "lat": 35.6604638, "lng": 139.7292487},
{"key": 23, "title": "四月は君の嘘", "placename": "石神井公園", "url": "https://legwork.g.hatena.ne.jp/keyword/四月は君の嘘", "lat": 35.738171, "lng": 139.595976},
{"key": 24, "title": "ラブライブ", "placename": "沖縄", "url": "https://legwork.g.hatena.ne.jp/keyword/ラブライブ", "lat": 26.1201911, "lng": 127.7025012},
{"key": 25, "title": "アイドルマスターシンデレラガールズ", "placename": "渋谷", "url": "https://legwork.g.hatena.ne.jp/keyword/アイドルマスターシンデレラガールズ", "lat": 35.6619707, "lng": 139.703795},
{"key": 26, "title": "色づく世界の明日から", "placename": "長崎", "url": "https://legwork.g.hatena.ne.jp/keyword/色づく世界の明日から", "lat": 32.7503334, "lng": 129.8778888},
{"key": 27, "title": "Fate/stay night", "placename": "東銀座", "url": "https://legwork.g.hatena.ne.jp/keyword/Fate/stay night", "lat": 35.6697003, "lng": 139.7671399},
{"key": 28, "title": "ゆるキャン△", "placename": "夜叉神峠（山梨県南アルプス市）", "url": "https://legwork.g.hatena.ne.jp/keyword/ゆるキャン△", "lat": 35.6382898, "lng": 138.3364914},
{"key": 29, "title": "月の彼方で逢いましょう", "placename": "藤沢・江ノ島", "url": "https://legwork.g.hatena.ne.jp/keyword/月の彼方で逢いましょう", "lat": 35.2990992, "lng": 139.4809269},
{"key": 30, "title": "結城友奈は勇者である", "placename": "鳥取県倉吉市", "url": "https://legwork.g.hatena.ne.jp/keyword/結城友奈は勇者である", "lat": 35.4304213, "lng": 133.8260633},
{"key": 31, "title": "のんのんびより", "placename": "秩父", "url": "https://legwork.g.hatena.ne.jp/keyword/のんのんびより", "lat": 35.9916443, "lng": 139.0855869},
{"key": 32, "title": "フルーツバスケット", "placename": "武蔵小杉", "url": "https://legwork.g.hatena.ne.jp/keyword/フルーツバスケット", "lat": 35.5766335, "lng": 139.659466},
{"key": 33, "title": "Summer Pockets", "placename": "女木島", "url": "https://legwork.g.hatena.ne.jp/keyword/Summer Pockets", "lat": 34.3948432, "lng": 134.0508518},
{"key": 34, "title": "風が強く吹いている", "placename": "ビッグサイト", "url": "https://legwork.g.hatena.ne.jp/keyword/風が強く吹いている", "lat": 35.62982, "lng": 139.7942416},
{"key": 35, "title": "転生したらスライムだった件", "placename": "京橋", "url": "https://legwork.g.hatena.ne.jp/keyword/転生したらスライムだった件", "lat": 34.6966897, "lng": 135.5339121},
{"key": 36, "title": "さらざんまい", "placename": "浅草・合羽橋", "url": "https://legwork.g.hatena.ne.jp/keyword/さらざんまい", "lat": 35.7163394, "lng": 139.7887174},
{"key": 37, "title": "中二病でも恋がしたい！", "placename": "有田ポーセリンパーク", "url": "https://legwork.g.hatena.ne.jp/keyword/中二病でも恋がしたい！", "lat": 33.165013, "lng": 129.9082199},
{"key": 38, "title": "四月は君の嘘", "placename": "大泉学園", "url": "https://legwork.g.hatena.ne.jp/keyword/四月は君の嘘", "lat": 35.7493601, "lng": 139.5865462},
{"key": 39, "title": "ラブライブ", "placename": "神田明神", "url": "https://legwork.g.hatena.ne.jp/keyword/ラブライブ", "lat": 35.7020019, "lng": 139.7676863},
{"key": 40, "title": "アイドルマスターシンデレラガールズ", "placename": "世田谷区若林", "url": "https://legwork.g.hatena.ne.jp/keyword/アイドルマスターシンデレラガールズ", "lat": 35.6465237, "lng": 139.659239},
{"key": 41, "title": "色づく世界の明日から", "placename": "アルベロベッロ（イタリア）", "url": "https://legwork.g.hatena.ne.jp/keyword/色づく世界の明日から", "lat": 40.7864228, "lng": 17.2409304},
{"key": 42, "title": "Fate/stay night", "placename": "ノイシュヴァンシュタイン", "url": "https://legwork.g.hatena.ne.jp/keyword/Fate/stay night", "lat": 47.557574, "lng": 10.7498004},
{"key": 43, "title": "ゆるキャン△", "placename": "富士宮（静岡県）", "url": "https://legwork.g.hatena.ne.jp/keyword/ゆるキャン△", "lat": 35.2221277, "lng": 138.6216491},
{"key": 44, "title": "月の彼方で逢いましょう", "placename": "横浜", "url": "https://legwork.g.hatena.ne.jp/keyword/月の彼方で逢いましょう", "lat": 35.4436739, "lng": 139.6379639},
{"key": 45, "title": "結城友奈は勇者である", "placename": "香川県観音寺", "url": "https://legwork.g.hatena.ne.jp/keyword/結城友奈は勇者である", "lat": 34.1284357, "lng": 133.6628477},
{"key": 46, "title": "のんのんびより", "placename": "南房総", "url": "https://legwork.g.hatena.ne.jp/keyword/のんのんびより", "lat": 35.042651, "lng": 139.839879},
{"key": 47, "title": "フルーツバスケット", "placename": "多摩川～田園調布", "url": "https://legwork.g.hatena.ne.jp/keyword/フルーツバスケット", "lat": 35.5938837, "lng": 139.6681689},
{"key": 48, "title": "Summer Pockets", "placename": "直島・男木島（香川県）", "url": "https://legwork.g.hatena.ne.jp/keyword/Summer Pockets", "lat": 34.4263966, "lng": 134.0603668},
{"key": 49, "title": "風が強く吹いている", "placename": "成城学園前", "url": "https://legwork.g.hatena.ne.jp/keyword/風が強く吹いている", "lat": 35.640128, "lng": 139.599087},
{"key": 50, "title": "さらざんまい", "placename": "手乗りケッピぬいぐるみ", "url": "https://legwork.g.hatena.ne.jp/keyword/さらざんまい", "lat": null, "lng": null},
{"key": 51, "title": "ラブライブ！サンシャイン!!", "placename": "ピサ", "url": "https://legwork.g.hatena.ne.jp/keyword/ラブライブ！サンシャイン!!", "lat": 43.7228386, "lng": 10.4016888},
{"key": 52, "title": "中二病でも恋がしたい！", "placename": "瀬田川共同橋", "url": "https://legwork.g.hatena.ne.jp/keyword/中二病でも恋がしたい！", "lat": null, "lng": null},
{"key": 53, "title": "四月は君の嘘", "placename": "ひばりヶ丘", "url": "https://legwork.g.hatena.ne.jp/keyword/四月は君の嘘", "lat": 35.75142, "lng": 139.545782},
{"key": 54, "title": "ラブライブ", "placename": "品川", "url": "https://legwork.g.hatena.ne.jp/keyword/ラブライブ", "lat": 35.6284713, "lng": 139.7387597},
{"key": 55, "title": "アイドルマスターシンデレラガールズ", "placename": "お台場", "url": "https://legwork.g.hatena.ne.jp/keyword/アイドルマスターシンデレラガールズ", "lat": 35.62058340000001, "lng": 139.7805445},
{"key": 56, "title": "Fate/stay night", "placename": "上野", "url": "https://legwork.g.hatena.ne.jp/keyword/Fate/stay night", "lat": 35.7087296, "lng": 139.7741538},
{"key": 57, "title": "ゆるキャン△", "placename": "雨畑（山梨県早川町）", "url": "https://legwork.g.hatena.ne.jp/keyword/ゆるキャン△", "lat": 35.3576411, "lng": 138.299098},
{"key": 58, "title": "結城友奈は勇者である", "placename": "京都", "url": "https://legwork.g.hatena.ne.jp/keyword/結城友奈は勇者である", "lat": 35.011564, "lng": 135.7681489},
{"key": 59, "title": "のんのんびより", "placename": "埼玉県小川町（小川小学校下里分校）", "url": "https://legwork.g.hatena.ne.jp/keyword/のんのんびより", "lat": 36.044338, "lng": 139.2846839},
{"key": 60, "title": "風が強く吹いている", "placename": "風が強く吹いている", "url": "https://legwork.g.hatena.ne.jp/keyword/風が強く吹いている", "lat": null, "lng": null},
{"key": 61, "title": "さらざんまい", "placename": "描き下ろし全巻収納BOX", "url": "https://legwork.g.hatena.ne.jp/keyword/さらざんまい", "lat": null, "lng": null},
{"key": 62, "title": "ラブライブ！サンシャイン!!", "placename": "ヴェネツィア", "url": "https://legwork.g.hatena.ne.jp/keyword/ラブライブ！サンシャイン!!", "lat": 45.4408474, "lng": 12.3155151},
{"key": 63, "title": "中二病でも恋がしたい！", "placename": "穴太駅", "url": "https://legwork.g.hatena.ne.jp/keyword/中二病でも恋がしたい！", "lat": 35.055545, "lng": 135.864848},
{"key": 64, "title": "四月は君の嘘", "placename": "練馬", "url": "https://legwork.g.hatena.ne.jp/keyword/四月は君の嘘", "lat": 35.7356446, "lng": 139.6516675},
{"key": 65, "title": "ラブライブ", "placename": "ニューヨーク", "url": "https://legwork.g.hatena.ne.jp/keyword/ラブライブ", "lat": 40.7127753, "lng": -74.0059728},
{"key": 66, "title": "アイドルマスターシンデレラガールズ", "placename": "バチカン", "url": "https://legwork.g.hatena.ne.jp/keyword/アイドルマスターシンデレラガールズ", "lat": 41.902916, "lng": 12.453389},
{"key": 67, "title": "Fate/stay night", "placename": "高円寺", "url": "https://legwork.g.hatena.ne.jp/keyword/Fate/stay night", "lat": 35.7078984, "lng": 139.6464845},
{"key": 68, "title": "ゆるキャン△", "placename": "浜松", "url": "https://legwork.g.hatena.ne.jp/keyword/ゆるキャン△", "lat": 34.7102752, "lng": 137.7274159},
{"key": 69, "title": "結城友奈は勇者である", "placename": "まんのう公園", "url": "https://legwork.g.hatena.ne.jp/keyword/結城友奈は勇者である", "lat": 34.1652338, "lng": 133.8905114},
{"key": 70, "title": "のんのんびより", "placename": "東京タワー", "url": "https://legwork.g.hatena.ne.jp/keyword/のんのんびより", "lat": 35.6585805, "lng": 139.7454329},
{"key": 71, "title": "ラブライブ！サンシャイン!!", "placename": "函館", "url": "https://legwork.g.hatena.ne.jp/keyword/ラブライブ！サンシャイン!!", "lat": 41.7686961, "lng": 140.7290599},
{"key": 72, "title": "中二病でも恋がしたい！", "placename": "檜山神社", "url": "https://legwork.g.hatena.ne.jp/keyword/中二病でも恋がしたい！", "lat": 34.9749853, "lng": 135.9135102},
{"key": 73, "title": "四月は君の嘘", "placename": "府中", "url": "https://legwork.g.hatena.ne.jp/keyword/四月は君の嘘", "lat": 35.6689919, "lng": 139.4777247},
{"key": 74, "title": "ラブライブ", "placename": "ラスベガス", "url": "https://legwork.g.hatena.ne.jp/keyword/ラブライブ", "lat": 36.1699412, "lng": -115.1398296},
{"key": 75, "title": "アイドルマスターシンデレラガールズ", "placename": "バリ", "url": "https://legwork.g.hatena.ne.jp/keyword/アイドルマスターシンデレラガールズ", "lat": -8.3405389, "lng": 115.0919509},
{"key": 76, "title": "Fate/stay night", "placename": "グラストンベリー", "url": "https://legwork.g.hatena.ne.jp/keyword/Fate/stay night", "lat": 51.147427, "lng": -2.718454},
{"key": 77, "title": "ゆるキャン△", "placename": "杖突峠（長野県茅野市）", "url": "https://legwork.g.hatena.ne.jp/keyword/ゆるキャン△", "lat": 35.9770164, "lng": 138.1298161},
{"key": 78, "title": "結城友奈は勇者である", "placename": "ホシトハナ", "url": "https://legwork.g.hatena.ne.jp/keyword/結城友奈は勇者である", "lat": null, "lng": null},
{"key": 79, "title": "のんのんびより", "placename": "石垣島", "url": "https://legwork.g.hatena.ne.jp/keyword/のんのんびより", "lat": 24.4064027, "lng": 124.1754442},
{"key": 80, "title": "ラブライブ！サンシャイン!!", "placename": "秋葉原", "url": "https://legwork.g.hatena.ne.jp/keyword/ラブライブ！サンシャイン!!", "lat": 35.7022589, "lng": 139.7744733},
{"key": 81, "title": "中二病でも恋がしたい！", "placename": "札幌", "url": "https://legwork.g.hatena.ne.jp/keyword/中二病でも恋がしたい！", "lat": 43.0617713, "lng": 141.3544507},
{"key": 82, "title": "四月は君の嘘", "placename": "稲村ガ崎（鎌倉）", "url": "https://legwork.g.hatena.ne.jp/keyword/四月は君の嘘", "lat": 35.3026605, "lng": 139.5248028},
{"key": 83, "title": "ラブライブ", "placename": "行幸通り", "url": "https://legwork.g.hatena.ne.jp/keyword/ラブライブ", "lat": 35.6820296, "lng": 139.7620916},
{"key": 84, "title": "アイドルマスターシンデレラガールズ", "placename": "武蔵境", "url": "https://legwork.g.hatena.ne.jp/keyword/アイドルマスターシンデレラガールズ", "lat": 35.7021388, "lng": 139.5436578},
{"key": 85, "title": "Fate/stay night", "placename": "吉祥寺", "url": "https://legwork.g.hatena.ne.jp/keyword/Fate/stay night", "lat": 35.704096, "lng": 139.5802054},
{"key": 86, "title": "ゆるキャン△", "placename": "笛吹川フルーツ公園（山梨市）", "url": "https://legwork.g.hatena.ne.jp/keyword/ゆるキャン△", "lat": 35.7024414, "lng": 138.6649312},
{"key": 87, "title": "結城友奈は勇者である", "placename": "伊吹島", "url": "https://legwork.g.hatena.ne.jp/keyword/結城友奈は勇者である", "lat": 34.1297164, "lng": 133.5330521},
{"key": 88, "title": "のんのんびより", "placename": "竹富島", "url": "https://legwork.g.hatena.ne.jp/keyword/のんのんびより", "lat": 24.3268759, "lng": 124.0891969},
{"key": 89, "title": "ラブライブ！サンシャイン!!", "placename": "名古屋", "url": "https://legwork.g.hatena.ne.jp/keyword/ラブライブ！サンシャイン!!", "lat": 35.18145060000001, "lng": 136.9065571},
{"key": 90, "title": "中二病でも恋がしたい！", "placename": "赤坂", "url": "https://legwork.g.hatena.ne.jp/keyword/中二病でも恋がしたい！", "lat": 35.6710403, "lng": 139.7345469},
{"key": 91, "title": "四月は君の嘘", "placename": "小平", "url": "https://legwork.g.hatena.ne.jp/keyword/四月は君の嘘", "lat": 35.72861270000001, "lng": 139.4775654},
{"key": 92, "title": "ラブライブ", "placename": "羽田空港", "url": "https://legwork.g.hatena.ne.jp/keyword/ラブライブ", "lat": 35.5493932, "lng": 139.7798386},
{"key": 93, "title": "アイドルマスターシンデレラガールズ", "placename": "吉祥寺", "url": "https://legwork.g.hatena.ne.jp/keyword/アイドルマスターシンデレラガールズ", "lat": 35.704096, "lng": 139.5802054},
{"key": 94, "title": "ゆるキャン△", "placename": "内船駅（山梨県南部町）", "url": "https://legwork.g.hatena.ne.jp/keyword/ゆるキャン△", "lat": 35.2821268, "lng": 138.4649195},
{"key": 95, "title": "結城友奈は勇者である", "placename": "三豊市財田町", "url": "https://legwork.g.hatena.ne.jp/keyword/結城友奈は勇者である", "lat": 34.1138557, "lng": 133.8004115},
{"key": 96, "title": "のんのんびより", "placename": "渋谷", "url": "https://legwork.g.hatena.ne.jp/keyword/のんのんびより", "lat": 35.6619707, "lng": 139.703795},
{"key": 97, "title": "ラブライブ！サンシャイン!!", "placename": "ローマ", "url": "https://legwork.g.hatena.ne.jp/keyword/ラブライブ！サンシャイン!!", "lat": 41.9027835, "lng": 12.4963655},
{"key": 98, "title": "中二病でも恋がしたい！", "placename": "中野", "url": "https://legwork.g.hatena.ne.jp/keyword/中二病でも恋がしたい！", "lat": 35.7075331, "lng": 139.6637591},
{"key": 99, "title": "ラブライブ", "placename": "秋葉原", "url": "https://legwork.g.hatena.ne.jp/keyword/ラブライブ", "lat": 35.7022589, "lng": 139.7744733},
{"key": 100, "title": "アイドルマスターシンデレラガールズ", "placename": "那覇", "url": "https://legwork.g.hatena.ne.jp/keyword/アイドルマスターシンデレラガールズ", "lat": 26.2125758, "lng": 127.6790208},
{"key": 101, "title": "ゆるキャン△", "placename": "山梨市", "url": "https://legwork.g.hatena.ne.jp/keyword/ゆるキャン△", "lat": 35.6933453, "lng": 138.6873168},
{"key": 102, "title": "結城友奈は勇者である", "placename": "結城友奈は勇者である", "url": "https://legwork.g.hatena.ne.jp/keyword/結城友奈は勇者である", "lat": null, "lng": null},
{"key": 103, "title": "のんのんびより", "placename": "羽田空港", "url": "https://legwork.g.hatena.ne.jp/keyword/のんのんびより", "lat": 35.5493932, "lng": 139.7798386},
{"key": 104, "title": "ラブライブ！サンシャイン!!", "placename": "フィレンツェ", "url": "https://legwork.g.hatena.ne.jp/keyword/ラブライブ！サンシャイン!!", "lat": 43.7695604, "lng": 11.2558136},
{"key": 105, "title": "中二病でも恋がしたい！", "placename": "東京タワー", "url": "https://legwork.g.hatena.ne.jp/keyword/中二病でも恋がしたい！", "lat": 35.6585805, "lng": 139.7454329},
{"key": 106, "title": "ラブライブ", "placename": "御茶ノ水", "url": "https://legwork.g.hatena.ne.jp/keyword/ラブライブ", "lat": 35.6993854, "lng": 139.7652479},
{"key": 107, "title": "アイドルマスターシンデレラガールズ", "placename": "ヴェネツィア", "url": "https://legwork.g.hatena.ne.jp/keyword/アイドルマスターシンデレラガールズ", "lat": 45.4408474, "lng": 12.3155151},
{"key": 108, "title": "ゆるキャン△", "placename": "赤沢宿（山梨県早川町）", "url": "https://legwork.g.hatena.ne.jp/keyword/ゆるキャン△", "lat": 35.3754098, "lng": 138.3738715},
{"key": 109, "title": "結城友奈は勇者である", "placename": "小樽", "url": "https://legwork.g.hatena.ne.jp/keyword/結城友奈は勇者である", "lat": 43.1902372, "lng": 140.994172},
{"key": 110, "title": "のんのんびより", "placename": "葛飾区小菅（高橋駄菓子店）", "url": "https://legwork.g.hatena.ne.jp/keyword/のんのんびより", "lat": 35.7553281, "lng": 139.8180737},
{"key": 111, "title": "ラブライブ！サンシャイン!!", "placename": "沼津", "url": "https://legwork.g.hatena.ne.jp/keyword/ラブライブ！サンシャイン!!", "lat": 35.0956068, "lng": 138.8635399},
{"key": 112, "title": "中二病でも恋がしたい！", "placename": "代々木", "url": "https://legwork.g.hatena.ne.jp/keyword/中二病でも恋がしたい！", "lat": 35.6821697, "lng": 139.69369},
{"key": 113, "title": "ラブライブ", "placename": "芳林公園", "url": "https://legwork.g.hatena.ne.jp/keyword/ラブライブ", "lat": 1.2865211, "lng": 103.8465804},
{"key": 114, "title": "アイドルマスターシンデレラガールズ", "placename": "松山", "url": "https://legwork.g.hatena.ne.jp/keyword/アイドルマスターシンデレラガールズ", "lat": 33.8393515, "lng": 132.7653057},
{"key": 115, "title": "ゆるキャン△", "placename": "本栖湖・甲斐常葉駅（山梨県身延町）", "url": "https://legwork.g.hatena.ne.jp/keyword/ゆるキャン△", "lat": 35.444815, "lng": 138.476996},
{"key": 116, "title": "のんのんびより", "placename": "青梅駅", "url": "https://legwork.g.hatena.ne.jp/keyword/のんのんびより", "lat": 35.7904967, "lng": 139.2582996},
{"key": 117, "title": "ラブライブ！サンシャイン!!", "placename": "東京駅", "url": "https://legwork.g.hatena.ne.jp/keyword/ラブライブ！サンシャイン!!", "lat": 35.68123620000001, "lng": 139.7671248},
{"key": 118, "title": "中二病でも恋がしたい！", "placename": "羽田空港", "url": "https://legwork.g.hatena.ne.jp/keyword/中二病でも恋がしたい！", "lat": 35.5493932, "lng": 139.7798386},
{"key": 119, "title": "ラブライブ", "placename": "万世橋", "url": "https://legwork.g.hatena.ne.jp/keyword/ラブライブ", "lat": 35.697106, "lng": 139.7709695},
{"key": 120, "title": "アイドルマスターシンデレラガールズ", "placename": "千葉", "url": "https://legwork.g.hatena.ne.jp/keyword/アイドルマスターシンデレラガールズ", "lat": 35.3354155, "lng": 140.1832516},
{"key": 121, "title": "ゆるキャン△", "placename": "富士山YMCAキャンプ場", "url": "https://legwork.g.hatena.ne.jp/keyword/ゆるキャン△", "lat": 35.3414282, "lng": 138.5834816},
{"key": 122, "title": "のんのんびより", "placename": "岡山県津山市（知和駅）", "url": "https://legwork.g.hatena.ne.jp/keyword/のんのんびより", "lat": 35.1929645, "lng": 134.0775412},
{"key": 123, "title": "中二病でも恋がしたい！", "placename": "瀬田漁港", "url": "https://legwork.g.hatena.ne.jp/keyword/中二病でも恋がしたい！", "lat": 34.974588, "lng": 135.908275},
{"key": 124, "title": "ラブライブ", "placename": "東京駅", "url": "https://legwork.g.hatena.ne.jp/keyword/ラブライブ", "lat": 35.68123620000001, "lng": 139.7671248},
{"key": 125, "title": "アイドルマスターシンデレラガールズ", "placename": "平安神宮", "url": "https://legwork.g.hatena.ne.jp/keyword/アイドルマスターシンデレラガールズ", "lat": 35.0159823, "lng": 135.7824263},
{"key": 126, "title": "ゆるキャン△", "placename": "高ボッチ高原（長野県塩尻市）", "url": "https://legwork.g.hatena.ne.jp/keyword/ゆるキャン△", "lat": 36.1321807, "lng": 138.0405129},
{"key": 127, "title": "のんのんびより", "placename": "柿ノ木駅（新潟県魚沼）", "url": "https://legwork.g.hatena.ne.jp/keyword/のんのんびより", "lat": 37.3411438, "lng": 139.089432},
{"key": 128, "title": "中二病でも恋がしたい！", "placename": "旧鎌掛小学校", "url": "https://legwork.g.hatena.ne.jp/keyword/中二病でも恋がしたい！", "lat": 34.9888042, "lng": 136.259911},
{"key": 129, "title": "ラブライブ", "placename": "関西空港", "url": "https://legwork.g.hatena.ne.jp/keyword/ラブライブ", "lat": 34.4320024, "lng": 135.2303939},
{"key": 130, "title": "アイドルマスターシンデレラガールズ", "placename": "代々木", "url": "https://legwork.g.hatena.ne.jp/keyword/アイドルマスターシンデレラガールズ", "lat": 35.6821697, "lng": 139.69369},
{"key": 131, "title": "中二病でも恋がしたい！", "placename": "福井県美浜町", "url": "https://legwork.g.hatena.ne.jp/keyword/中二病でも恋がしたい！", "lat": 35.6006207, "lng": 135.9405049},
{"key": 132, "title": "アイドルマスターシンデレラガールズ", "placename": "福井県高浜町", "url": "https://legwork.g.hatena.ne.jp/keyword/アイドルマスターシンデレラガールズ", "lat": 35.4878584, "lng": 135.5459546},
{"key": 133, "title": "中二病でも恋がしたい！", "placename": "立花旧宅", "url": "https://legwork.g.hatena.ne.jp/keyword/中二病でも恋がしたい！", "lat": null, "lng": null},
{"key": 134, "title": "アイドルマスターシンデレラガールズ", "placename": "バレンシア", "url": "https://legwork.g.hatena.ne.jp/keyword/アイドルマスターシンデレラガールズ", "lat": 39.4699075, "lng": -0.3762881},
{"key": 135, "title": "中二病でも恋がしたい！", "placename": "唐橋公園", "url": "https://legwork.g.hatena.ne.jp/keyword/中二病でも恋がしたい！", "lat": 34.9774877, "lng": 135.9083519},
{"key": 136, "title": "アイドルマスターシンデレラガールズ", "placename": "京都", "url": "https://legwork.g.hatena.ne.jp/keyword/アイドルマスターシンデレラガールズ", "lat": 35.011564, "lng": 135.7681489},
{"key": 137, "title": "中二病でも恋がしたい！", "placename": "Monastero Santa Rosa Hotel（イタリア・アマルフィ海岸）", "url": "https://legwork.g.hatena.ne.jp/keyword/中二病でも恋がしたい！", "lat": 40.620582, "lng": 14.5773581},
{"key": 138, "title": "アイドルマスターシンデレラガールズ", "placename": "若洲海浜公園", "url": "https://legwork.g.hatena.ne.jp/keyword/アイドルマスターシンデレラガールズ", "lat": 35.62006520000001, "lng": 139.8339978},
{"key": 139, "title": "中二病でも恋がしたい！", "placename": "新宿", "url": "https://legwork.g.hatena.ne.jp/keyword/中二病でも恋がしたい！", "lat": 35.6938253, "lng": 139.7033559},
{"key": 140, "title": "アイドルマスターシンデレラガールズ", "placename": "埼玉", "url": "https://legwork.g.hatena.ne.jp/keyword/アイドルマスターシンデレラガールズ", "lat": 35.9962513, "lng": 139.4466005},
{"key": 141, "title": "中二病でも恋がしたい！", "placename": "ひらかたパーク", "url": "https://legwork.g.hatena.ne.jp/keyword/中二病でも恋がしたい！", "lat": 34.8059896, "lng": 135.6392002},
{"key": 142, "title": "アイドルマスターシンデレラガールズ", "placename": "グランドキャニオン", "url": "https://legwork.g.hatena.ne.jp/keyword/アイドルマスターシンデレラガールズ", "lat": 36.1069652, "lng": -112.1129972},
{"key": 143, "title": "中二病でも恋がしたい！", "placename": "吉野ヶ里", "url": "https://legwork.g.hatena.ne.jp/keyword/中二病でも恋がしたい！", "lat": 33.3516328, "lng": 130.3982813},
{"key": 144, "title": "アイドルマスターシンデレラガールズ", "placename": "ストーンヘンジ", "url": "https://legwork.g.hatena.ne.jp/keyword/アイドルマスターシンデレラガールズ", "lat": 51.17888199999999, "lng": -1.826215},
{"key": 145, "title": "中二病でも恋がしたい！", "placename": "鹿児島", "url": "https://legwork.g.hatena.ne.jp/keyword/中二病でも恋がしたい！", "lat": 31.5968539, "lng": 130.5571392},
{"key": 146, "title": "アイドルマスターシンデレラガールズ", "placename": "池袋", "url": "https://legwork.g.hatena.ne.jp/keyword/アイドルマスターシンデレラガールズ", "lat": 35.7348314, "lng": 139.7077314},
{"key": 147, "title": "中二病でも恋がしたい！", "placename": "水族館", "url": "https://legwork.g.hatena.ne.jp/keyword/中二病でも恋がしたい！", "lat": null, "lng": null},
{"key": 148, "title": "アイドルマスターシンデレラガールズ", "placename": "横浜", "url": "https://legwork.g.hatena.ne.jp/keyword/アイドルマスターシンデレラガールズ", "lat": 35.4436739, "lng": 139.6379639},
{"key": 149, "title": "Kiss×sis", "placename": "伊香保温泉", "url": "https://legwork.g.hatena.ne.jp/keyword/Kiss×sis", "lat": null, "lng": null},
{"key": 150, "title": "中二病でも恋がしたい！", "placename": "秋葉原", "url": "https://legwork.g.hatena.ne.jp/keyword/中二病でも恋がしたい！", "lat": 35.7022589, "lng": 139.7744733},
{"key": 151, "title": "アイドルマスターシンデレラガールズ", "placename": "三軒茶屋", "url": "https://legwork.g.hatena.ne.jp/keyword/アイドルマスターシンデレラガールズ", "lat": 35.6412539, "lng": 139.667531},
{"key": 152, "title": "つうかあ", "placename": "三宅島", "url": "https://legwork.g.hatena.ne.jp/keyword/つうかあ", "lat": 34.0788424, "lng": 139.5178185},
{"key": 153, "title": "かぐや様は告らせたい", "placename": "竹芝ふ頭", "url": "https://legwork.g.hatena.ne.jp/keyword/かぐや様は告らせたい", "lat": 35.6545868, "lng": 139.7628679},
{"key": 154, "title": "文豪ストレイドッグス", "placename": "横浜", "url": "https://legwork.g.hatena.ne.jp/keyword/文豪ストレイドッグス", "lat": 35.4436739, "lng": 139.6379639},
{"key": 155, "title": "かみちゅ！", "placename": "かみちゅ！展への道", "url": "https://legwork.g.hatena.ne.jp/keyword/かみちゅ！", "lat": null, "lng": null},
{"key": 156, "title": "中二病でも恋がしたい！", "placename": "京都駅", "url": "https://legwork.g.hatena.ne.jp/keyword/中二病でも恋がしたい！", "lat": 34.985849, "lng": 135.7587667},
{"key": 157, "title": "アイドルマスターシンデレラガールズ", "placename": "ローマ", "url": "https://legwork.g.hatena.ne.jp/keyword/アイドルマスターシンデレラガールズ", "lat": 41.9027835, "lng": 12.4963655},
{"key": 158, "title": "ガールズ＆パンツァー", "placename": "土浦駐屯地", "url": "https://legwork.g.hatena.ne.jp/keyword/ガールズ＆パンツァー", "lat": 36.0493013, "lng": 140.2233564},
{"key": 159, "title": "かぐや様は告らせたい", "placename": "三田", "url": "https://legwork.g.hatena.ne.jp/keyword/かぐや様は告らせたい", "lat": 34.8900002, "lng": 135.225507},
{"key": 160, "title": "かみちゅ！", "placename": "出雲大社", "url": "https://legwork.g.hatena.ne.jp/keyword/かみちゅ！", "lat": 35.402035, "lng": 132.685456},
{"key": 161, "title": "中二病でも恋がしたい！", "placename": "竜飛崎（青森県外が浜町）", "url": "https://legwork.g.hatena.ne.jp/keyword/中二病でも恋がしたい！", "lat": 41.2589327, "lng": 140.3423975},
{"key": 162, "title": "アイドルマスターシンデレラガールズ", "placename": "新宿", "url": "https://legwork.g.hatena.ne.jp/keyword/アイドルマスターシンデレラガールズ", "lat": 35.6938253, "lng": 139.7033559},
{"key": 163, "title": "ガールズ＆パンツァー", "placename": "大洗", "url": "https://legwork.g.hatena.ne.jp/keyword/ガールズ＆パンツァー", "lat": 36.3133985, "lng": 140.5748789},
{"key": 164, "title": "青春ブタ野郎はバニーガール先輩の夢を見ない", "placename": "大垣", "url": "https://legwork.g.hatena.ne.jp/keyword/青春ブタ野郎はバニーガール先輩の夢を見ない", "lat": 35.3593013, "lng": 136.6134417},
{"key": 165, "title": "かぐや様は告らせたい", "placename": "大門", "url": "https://legwork.g.hatena.ne.jp/keyword/かぐや様は告らせたい", "lat": null, "lng": null},
{"key": 166, "title": "かみちゅ！", "placename": "福山", "url": "https://legwork.g.hatena.ne.jp/keyword/かみちゅ！", "lat": null, "lng": null},
{"key": 167, "title": "中二病でも恋がしたい！", "placename": "浜大津", "url": "https://legwork.g.hatena.ne.jp/keyword/中二病でも恋がしたい！", "lat": 35.0121278, "lng": 135.8631948},
{"key": 168, "title": "アイドルマスターシンデレラガールズ", "placename": "飯田橋", "url": "https://legwork.g.hatena.ne.jp/keyword/アイドルマスターシンデレラガールズ", "lat": 35.7004584, "lng": 139.7492367},
{"key": 169, "title": "ガールズ＆パンツァー", "placename": "さいたま新都心", "url": "https://legwork.g.hatena.ne.jp/keyword/ガールズ＆パンツァー", "lat": 35.8926136, "lng": 139.6318202},
{"key": 170, "title": "青春ブタ野郎はバニーガール先輩の夢を見ない", "placename": "横浜", "url": "https://legwork.g.hatena.ne.jp/keyword/青春ブタ野郎はバニーガール先輩の夢を見ない", "lat": 35.4436739, "lng": 139.6379639},
{"key": 171, "title": "かぐや様は告らせたい", "placename": "新橋", "url": "https://legwork.g.hatena.ne.jp/keyword/かぐや様は告らせたい", "lat": 24.805184, "lng": 120.9705388},
{"key": 172, "title": "アイドルマスターシンデレラガールズ", "placename": "オックスフォード", "url": "https://legwork.g.hatena.ne.jp/keyword/アイドルマスターシンデレラガールズ", "lat": 51.7520209, "lng": -1.2577263},
{"key": 173, "title": "ゾンビランドサガ", "placename": "嬉野", "url": "https://legwork.g.hatena.ne.jp/keyword/ゾンビランドサガ", "lat": 33.1009323, "lng": 129.9870664},
{"key": 174, "title": "君の名は。", "placename": "かつらぎ町役場（和歌山県）？", "url": "https://legwork.g.hatena.ne.jp/keyword/君の名は。", "lat": 34.2964087, "lng": 135.5036966},
{"key": 175, "title": "ガールズ＆パンツァー", "placename": "奈良国立博物館仏教美術資料研究センター", "url": "https://legwork.g.hatena.ne.jp/keyword/ガールズ＆パンツァー", "lat": 34.6825358, "lng": 135.8391316},
{"key": 176, "title": "青春ブタ野郎はバニーガール先輩の夢を見ない", "placename": "江ノ島", "url": "https://legwork.g.hatena.ne.jp/keyword/青春ブタ野郎はバニーガール先輩の夢を見ない", "lat": 35.2990992, "lng": 139.4809269},
{"key": 177, "title": "アイドルマスターシンデレラガールズ", "placename": "仙台", "url": "https://legwork.g.hatena.ne.jp/keyword/アイドルマスターシンデレラガールズ", "lat": 38.268195, "lng": 140.869418},
{"key": 178, "title": "ゾンビランドサガ", "placename": "佐賀市", "url": "https://legwork.g.hatena.ne.jp/keyword/ゾンビランドサガ", "lat": 33.2631179, "lng": 130.3009057},
{"key": 179, "title": "君の名は。", "placename": "西新宿", "url": "https://legwork.g.hatena.ne.jp/keyword/君の名は。", "lat": 35.6913457, "lng": 139.69369},
{"key": 180, "title": "ガールズ＆パンツァー", "placename": "市ヶ谷", "url": "https://legwork.g.hatena.ne.jp/keyword/ガールズ＆パンツァー", "lat": 35.6910121, "lng": 139.7355674},
{"key": 181, "title": "青春ブタ野郎はバニーガール先輩の夢を見ない", "placename": "藤沢", "url": "https://legwork.g.hatena.ne.jp/keyword/青春ブタ野郎はバニーガール先輩の夢を見ない", "lat": 35.3391654, "lng": 139.49014},
{"key": 182, "title": "アイドルマスターシンデレラガールズ", "placename": "ミラノ", "url": "https://legwork.g.hatena.ne.jp/keyword/アイドルマスターシンデレラガールズ", "lat": 45.4642035, "lng": 9.189982},
{"key": 183, "title": "ゾンビランドサガ", "placename": "唐津", "url": "https://legwork.g.hatena.ne.jp/keyword/ゾンビランドサガ", "lat": 33.4500971, "lng": 129.9682676},
{"key": 184, "title": "君の名は。", "placename": "飛騨古川", "url": "https://legwork.g.hatena.ne.jp/keyword/君の名は。", "lat": 36.2367259, "lng": 137.1896028},
{"key": 185, "title": "ガールズ＆パンツァー", "placename": "タウシュベツ川橋梁（上士幌）", "url": "https://legwork.g.hatena.ne.jp/keyword/ガールズ＆パンツァー", "lat": 43.41549699999999, "lng": 143.1894245},
{"key": 186, "title": "アイドルマスターシンデレラガールズ", "placename": "ニューヨーク", "url": "https://legwork.g.hatena.ne.jp/keyword/アイドルマスターシンデレラガールズ", "lat": 40.7127753, "lng": -74.0059728},
{"key": 187, "title": "君の名は。", "placename": "信濃町駅", "url": "https://legwork.g.hatena.ne.jp/keyword/君の名は。", "lat": 35.6800602, "lng": 139.7203199},
{"key": 188, "title": "ガールズ＆パンツァー", "placename": "ひばりヶ丘", "url": "https://legwork.g.hatena.ne.jp/keyword/ガールズ＆パンツァー", "lat": 35.75142, "lng": 139.545782},
{"key": 189, "title": "アイドルマスターシンデレラガールズ", "placename": "科学技術館", "url": "https://legwork.g.hatena.ne.jp/keyword/アイドルマスターシンデレラガールズ", "lat": 35.691589, "lng": 139.753069},
{"key": 190, "title": "君の名は。", "placename": "渋谷", "url": "https://legwork.g.hatena.ne.jp/keyword/君の名は。", "lat": 35.6619707, "lng": 139.703795},
{"key": 191, "title": "ガールズ＆パンツァー", "placename": "東富士演習場", "url": "https://legwork.g.hatena.ne.jp/keyword/ガールズ＆パンツァー", "lat": 35.2940879, "lng": 138.8536638},
{"key": 192, "title": "アイドルマスターシンデレラガールズ", "placename": "弘前", "url": "https://legwork.g.hatena.ne.jp/keyword/アイドルマスターシンデレラガールズ", "lat": 40.6030626, "lng": 140.4640543},
{"key": 193, "title": "君の名は。", "placename": "前田南駅（秋田県）", "url": "https://legwork.g.hatena.ne.jp/keyword/君の名は。", "lat": 40.0507258, "lng": 140.4024565},
{"key": 194, "title": "ガールズ＆パンツァー", "placename": "杉並区桃井", "url": "https://legwork.g.hatena.ne.jp/keyword/ガールズ＆パンツァー", "lat": 35.7127978, "lng": 139.6088747},
{"key": 195, "title": "アイドルマスターシンデレラガールズ", "placename": "新世界", "url": "https://legwork.g.hatena.ne.jp/keyword/アイドルマスターシンデレラガールズ", "lat": null, "lng": null},
{"key": 196, "title": "君の名は。", "placename": "須賀神社（新宿区須賀町）", "url": "https://legwork.g.hatena.ne.jp/keyword/君の名は。", "lat": 35.6853864, "lng": 139.7224046},
{"key": 197, "title": "ガールズ＆パンツァー", "placename": "武蔵境", "url": "https://legwork.g.hatena.ne.jp/keyword/ガールズ＆パンツァー", "lat": 35.7021388, "lng": 139.5436578},
{"key": 198, "title": "アイドルマスターシンデレラガールズ", "placename": "ロンドン", "url": "https://legwork.g.hatena.ne.jp/keyword/アイドルマスターシンデレラガールズ", "lat": 51.5073509, "lng": -0.1277583},
{"key": 199, "title": "君の名は。", "placename": "国立新美術館", "url": "https://legwork.g.hatena.ne.jp/keyword/君の名は。", "lat": 35.665289, "lng": 139.726374},
{"key": 200, "title": "ガールズ＆パンツァー", "placename": "さんふらわあ", "url": "https://legwork.g.hatena.ne.jp/keyword/ガールズ＆パンツァー", "lat": null, "lng": null},
{"key": 201, "title": "アイドルマスターシンデレラガールズ", "placename": "汐留", "url": "https://legwork.g.hatena.ne.jp/keyword/アイドルマスターシンデレラガールズ", "lat": null, "lng": null},
{"key": 202, "title": "君の名は。", "placename": "蜷川家具店（千葉県佐原市）", "url": "https://legwork.g.hatena.ne.jp/keyword/君の名は。", "lat": 35.888467, "lng": 140.499161},
{"key": 203, "title": "ガールズ＆パンツァー", "placename": "ローマ", "url": "https://legwork.g.hatena.ne.jp/keyword/ガールズ＆パンツァー", "lat": 41.9027835, "lng": 12.4963655},
{"key": 204, "title": "アイドルマスターシンデレラガールズ", "placename": "隅田川", "url": "https://legwork.g.hatena.ne.jp/keyword/アイドルマスターシンデレラガールズ", "lat": 35.7086772, "lng": 139.7969163},
{"key": 205, "title": "君の名は。", "placename": "四ツ谷駅", "url": "https://legwork.g.hatena.ne.jp/keyword/君の名は。", "lat": 35.6861525, "lng": 139.7302183},
{"key": 206, "title": "君の名は。", "placename": "明治神宮外苑", "url": "https://legwork.g.hatena.ne.jp/keyword/君の名は。", "lat": 35.6772346, "lng": 139.7171153}
]